IRIDIUM 119             
1 42959U 17061E   25347.82151145  .00000273  00000+0  90442-4 0  9996
2 42959  86.3968 102.7632 0001775  93.3355 266.8044 14.34215103428244
IRIDIUM 107             
1 42960U 17061F   25347.84054001  .00000227  00000+0  73963-4 0  9991
2 42960  86.3969 102.7755 0001990 108.0353 252.1060 14.34217159428254
IRIDIUM 132             
1 42961U 17061G   25347.84687790  .00000511  00000+0  17537-3 0  9999
2 42961  86.3963 102.7538 0001969  98.2657 261.8763 14.34216708428257
IRIDIUM 136             
1 42962U 17061H   25347.87859509  .00000334  00000+0  11211-3 0  9998
2 42962  86.3966 102.7462 0001869  96.8505 263.2904 14.34216724428275
IRIDIUM 139             
1 42963U 17061J   25347.88493789  .00000354  00000+0  11945-3 0  9990
2 42963  86.3971 102.8029 0002047 100.3167 259.8260 14.34215989428285
IRIDIUM 125             
1 42964U 17061K   25347.87222448  .00000155  00000+0  48430-4 0  9991
2 42964  86.3969 102.8654 0001581 108.9791 251.1577 14.34213736428291
IRIDIUM 135             
1 43070U 17083A   25347.84636994  .00000306  00000+0  10210-3 0  9998
2 43070  86.3971  39.4817 0002105  92.2716 267.8721 14.34213769417585
IRIDIUM 138             
1 43071U 17083B   25347.87174907  .00000015  00000+0 -16480-5 0  9998
2 43071  86.3977  39.1377 0001664  92.4556 267.6831 14.34217636417579
